OBJECT_NAME,OBJECT_ID,EPOCH,MEAN_MOTION,ECCENTRICITY,INCLINATION,RA_OF_ASC_NODE,ARG_OF_PERICENTER,MEAN_ANOMALY,EPHEMERIS_TYPE,CLASSIFICATION_TYPE,NORAD_CAT_ID,ELEMENT_SET_NO,REV_AT_EPOCH,BSTAR,MEAN_MOTION_DOT,MEAN_MOTION_DDOT
ONEWEB-0620,2023-004X,2026-07-11T22:25:54.980832,13.11418746,.0002106,87.8879,16.1479,90.4415,269.6955,0,U,55161,999,16907,-.71002E-3,-.239E-5,0
ONEWEB-0621,2023-004Y,2026-07-11T23:05:00.180960,13.11415877,.0001762,87.8882,16.1339,81.3683,278.7645,0,U,55162,999,16905,.16096E-2,.583E-5,0
ONEWEB-0622,2023-004Z,2026-07-11T12:13:07.373568,13.11415157,.00022899,87.8891,16.2273,73.2308,286.9071,0,U,55163,999,16898,.11600976E-2,.424E-5,0
ONEWEB-0623,2023-004AA,2026-07-11T20:22:57.836064,13.17647432,.00017486,87.9124,0.9714,64.6346,295.4966,0,U,55164,999,17083,-.12240972E-3,-.35E-6,0
ONEWEB-0624,2023-004AB,2026-07-11T19:26:58.249824,13.12927924,.0001793,87.8963,345.6847,90.3202,269.8132,0,U,55165,999,17130,.53284879E-3,.206E-5,0
ONEWEB-0625,2023-004AC,2026-07-11T21:57:43.738848,13.17650994,.0001651,87.9134,0.9546,94.6874,265.4446,0,U,55166,999,17083,.10669E-3,.54E-6,0
ONEWEB-0626,2023-004AD,2026-07-11T19:53:49.710912,13.17650223,.00021406,87.9139,0.9712,98.5751,261.5624,0,U,55167,999,17082,.13800311E-3,.66E-6,0
ONEWEB-0627,2023-004AE,2026-07-11T12:19:24.469824,13.17648631,.00020479,87.9142,1.0357,84.2193,275.9172,0,U,55168,999,17078,.27675397E-3,.12E-5,0
ONEWEB-0628,2023-004AF,2026-07-11T21:03:06.961824,13.12442911,.0001629,87.8966,345.7437,74.5056,285.6252,0,U,55169,999,17127,.12751E-2,.471E-5,0
ONEWEB-0629,2023-004AG,2026-07-11T20:50:55.014720,13.17649854,.00015416,87.9140,0.9599,88.0838,272.0470,0,U,55170,999,17083,.1064996E-3,.54E-6,0
ONEWEB-0631,2023-004AH,2026-07-11T20:05:36.518208,13.18686647,.00023001,87.9189,330.5343,89.9513,270.1883,0,U,55171,999,17292,.5921412E-5,.15E-6,0
ONEWEB-0709,2023-004AJ,2026-07-11T13:01:55.956000,13.11417515,.00025968,87.8877,16.2285,100.9306,259.2115,0,U,55172,999,16906,-.11958537E-2,-.411E-5,0
ONEWEB-0710,2023-004AK,2026-07-11T21:11:33.931104,13.17648002,.0001915,87.9138,0.9521,87.3274,272.8076,0,U,55173,999,17083,-.16669E-4,.6E-7,0
ONEWEB-0711,2023-004AL,2026-07-11T23:19:38.899200,13.11414830,.0001945,87.8850,16.1301,70.9065,289.2273,0,U,55174,999,16908,.10464E-2,.384E-5,0
ONEWEB-0713,2023-004AM,2026-07-11T21:56:37.577184,13.11415050,.000192,87.8882,16.1453,74.8404,285.2936,0,U,55175,999,16906,-.12004E-2,-.413E-5,0
ONEWEB-0715,2023-004AN,2026-07-11T12:39:57.918816,13.11414671,.00025161,87.8879,16.2214,93.4768,266.6648,0,U,55176,999,16905,-.87812424E-3,-.299E-5,0
ONEWEB-0716,2023-004AP,2026-07-11T11:55:06.175200,13.17648208,.00015076,87.9133,1.0308,96.7838,263.3465,0,U,55177,999,17078,.66190459E-4,.39E-6,0
ONEWEB-0717,2023-004AQ,2026-07-11T20:37:32.928960,13.17650285,.00021958,87.9158,0.9498,78.1137,282.0241,0,U,55178,999,17088,.13060308E-3,.64E-6,0
ONEWEB-0719,2023-004AR,2026-07-11T20:52:07.269312,13.17651061,.00016007,87.9149,0.9282,92.8920,267.2395,0,U,55179,999,17083,-.11307493E-4,.8E-7,0
APSTAR-6E,2023-005A,2026-07-11T15:17:32.134272,1.00272143,.00017428,0.0557,234.1096,330.9010,87.9369,0,U,55239,999,1893,0,-.312E-5,0
YAOGAN-37,2023-006C,2026-07-11T21:39:06.037344,15.17409693,.0016342,43.1978,345.7221,172.8242,187.2846,0,U,55244,999,19363,.17332E-3,.3298E-4,0
LINUSS1,2022-144G,2026-07-11T11:30:35.873568,0.99055824,.00098027,5.4379,63.9966,308.2628,223.9181,0,U,55246,999,1190,0,-.273E-5,0
LINUSS2,2022-144H,2026-07-11T14:23:34.907712,0.99051008,.00071882,5.4377,63.9885,315.4819,248.8399,0,U,55247,999,1195,0,-.228E-5,0
USA 342,2023-008A,2026-07-09T06:55:38.597952,1.00269378,.0000262,0.0052,352.2306,7.3445,55.4773,0,U,55263,999,1273,0,0,0
LDPE-3A,2023-008B,2026-07-12T03:57:30.066048,0.99150942,.0001507,2.4103,81.3553,79.7949,338.3022,0,U,55264,999,1206,0,-.289E-5,0
NAVSTAR 82 (USA 343),2023-009A,2026-07-12T03:13:11.811936,2.00569737,.0006213,55.1239,147.5384,321.0542,219.3339,0,U,55268,999,2574,0,.2E-6,0
STARLINK-5277,2023-010A,2026-07-12T03:05:20.241600,14.98333946,.0003077,69.9998,90.7848,263.2262,96.8547,0,U,55269,999,19170,.24454E-4,.199E-5,0
STARLINK-5306,2023-010C,2026-07-11T20:46:50.017152,14.98331886,.00034048,69.9997,91.4736,269.3567,90.7202,0,U,55271,999,19138,.73805689E-4,.788E-5,0
STARLINK-5310,2023-010D,2026-07-12T02:47:19.323168,14.98328682,.0003013,70.0000,90.7439,268.9665,91.1148,0,U,55272,999,19142,-.10244E-4,-.215E-5,0
STARLINK-5291,2023-010E,2026-07-11T19:46:41.931552,14.98331543,.00028549,69.9993,91.3301,259.8069,100.2768,0,U,55273,999,19138,.15293927E-4,.9E-6,0
STARLINK-5236,2023-010F,2026-07-11T20:28:27.522912,14.98337582,.0002667,69.9990,71.5593,264.9357,95.1498,0,U,55274,999,19187,.9117739E-4,.995E-5,0
